{"type": "FeatureCollection", "features": [ {"type": "Feature", "properties": {"norad_id": 34833, "name": "IRIDIUM 33 DEB", "group": "iridium-33-debris", "lat": -78.93475680172521, "lon": 31.26228261207643, "alt_km": 740.5213541006988, "timestamp": "2025-12-14T20:40:32.157807+00:00", "meta": {"OBJECT_NAME": "IRIDIUM 33 DEB", "OBJECT_ID": "1997-051MH", "EPOCH": "2025-12-14T04:45:15.078816", "MEAN_MOTION": 14.5239107, "ECCENTRICITY": 0.00217354, "INCLINATION": 86.3931, "RA_OF_ASC_NODE": 50.3648, "ARG_OF_PERICENTER": 94.0496, "MEAN_ANOMALY": 320.0854, "EPHEMERIS_TYPE": 0, "CLASSIFICATION_TYPE": "U", "NORAD_CAT_ID": 34833, "ELEMENT_SET_NO": 999, "REV_AT_EPOCH": 87736, "BSTAR": 0.00088730228, "MEAN_MOTION_DOT": 3.644e-05, "MEAN_MOTION_DDOT": 0}, "tle": {"line1": "1 34833U 97051MH  25348.19809119  .00003644  00000+0  88730-3 0  9998", "line2": "2 34833  86.3931  50.3648 0021735  94.0496 320.0854 14.52391070877364"}}, "geometry": {"type": "Point", "coordinates": [31.26228261207643, -78.93475680172521]}}, {"type": "Feature", "properties": {"norad_id": 34870, "name": "IRIDIUM 33 DEB", "group": "iridium-33-debris", "lat": 75.51426219482762, "lon": -32.422271944218814, "alt_km": 635.1057990043382, "timestamp": "2025-12-14T20:40:32.157818+00:00", "meta": {"OBJECT_NAME": "IRIDIUM 33 DEB", "OBJECT_ID": "1997-051MQ", "EPOCH": "2025-12-13T15:51:00.242208", "MEAN_MOTION": 14.76459498, "ECCENTRICITY": 0.00163253, "INCLINATION": 86.31, "RA_OF_ASC_NODE": 313.6624, "ARG_OF_PERICENTER": 179.046, "MEAN_ANOMALY": 357.3162, "EPHEMERIS_TYPE": 0, "CLASSIFICATION_TYPE": "U", "NORAD_CAT_ID": 34870, "ELEMENT_SET_NO": 999, "REV_AT_EPOCH": 88924, "BSTAR": 0.0017247419, "MEAN_MOTION_DOT": 0.00012059, "MEAN_MOTION_DDOT": 0}, "tle": {"line1": "1 34870U 97051MQ  25347.66041947  .00012059  00000+0  17247-2 0  9991", "line2": "2 34870  86.3100 313.6624 0016325 179.0460 357.3162 14.76459498889246"}}, "geometry": {"type": "Point", "coordinates": [-32.422271944218814, 75.51426219482762]}}, {"type": "Feature", "properties": {"norad_id": 34896, "name": "IRIDIUM 33 DEB", "group": "iridium-33-debris", "lat": -19.81150588755069, "lon": 147.05894794336072, "alt_km": 661.0177513841563, "timestamp": "2025-12-14T20:40:32.157828+00:00", "meta": {"OBJECT_NAME": "IRIDIUM 33 DEB", "OBJECT_ID": "1997-051MY", "EPOCH": "2025-12-14T05:05:50.525376", "MEAN_MOTION": 14.66300164, "ECCENTRICITY": 0.00244756, "INCLINATION": 86.3287, "RA_OF_ASC_NODE": 326.0246, "ARG_OF_PERICENTER": 208.9085, "MEAN_ANOMALY": 166.7259, "EPHEMERIS_TYPE": 0, "CLASSIFICATION_TYPE": "U", "NORAD_CAT_ID": 34896, "ELEMENT_SET_NO": 999, "REV_AT_EPOCH": 87641, "BSTAR": 0.0011083556, "MEAN_MOTION_DOT": 6.162e-05, "MEAN_MOTION_DDOT": 0}, "tle": {"line1": "1 34896U 97051MY  25348.21239034  .00006162  00000+0  11084-2 0  9998", "line2": "2 34896  86.3287 326.0246 0024475 208.9085 166.7259 14.66300164876416"}}, "geometry": {"type": "Point", "coordinates": [147.05894794336072, -19.81150588755069]}}, {"type": "Feature", "properties": {"norad_id": 34926, "name": "IRIDIUM 33 DEB", "group": "iridium-33-debris", "lat": -15.485237189330965, "lon": -171.6356724129603, "alt_km": 715.6563104146053, "timestamp": "2025-12-14T20:40:32.157838+00:00", "meta": {"OBJECT_NAME": "IRIDIUM 33 DEB", "OBJECT_ID": "1997-051NF", "EPOCH": "2025-12-14T01:51:40.129056", "MEAN_MOTION": 14.54500914, "ECCENTRICITY": 0.00755735, "INCLINATION": 86.1333, "RA_OF_ASC_NODE": 7.654, "ARG_OF_PERICENTER": 288.4035, "MEAN_ANOMALY": 125.6013, "EPHEMERIS_TYPE": 0, "CLASSIFICATION_TYPE": "U", "NORAD_CAT_ID": 34926, "ELEMENT_SET_NO": 999, "REV_AT_EPOCH": 86476, "BSTAR": 0.0053943711, "MEAN_MOTION_DOT": 0.00023949, "MEAN_MOTION_DDOT": 0}, "tle": {"line1": "1 34926U 97051NF  25348.07754779  .00023949  00000+0  53944-2 0  9997", "line2": "2 34926  86.1333   7.6540 0075573 288.4035 125.6013 14.54500914864761"}}, "geometry": {"type": "Point", "coordinates": [-171.6356724129603, -15.485237189330965]}}, {"type": "Feature", "properties": {"norad_id": 34985, "name": "IRIDIUM 33 DEB", "group": "iridium-33-debris", "lat": -46.19457139500619, "lon": -120.2306807760235, "alt_km": 744.2192562684668, "timestamp": "2025-12-14T20:40:32.157848+00:00", "meta": {"OBJECT_NAME": "IRIDIUM 33 DEB", "OBJECT_ID": "1997-051NR", "EPOCH": "2025-12-14T04:53:38.247360", "MEAN_MOTION": 14.42019267, "ECCENTRICITY": 0.00208706, "INCLINATION": 86.37, "RA_OF_ASC_NODE": 56.2548, "ARG_OF_PERICENTER": 214.6902, "MEAN_ANOMALY": 200.0327, "EPHEMERIS_TYPE": 0, "CLASSIFICATION_TYPE": "U", "NORAD_CAT_ID": 34985, "ELEMENT_SET_NO": 999, "REV_AT_EPOCH": 87196, "BSTAR": 0.00078314681, "MEAN_MOTION_DOT": 2.594e-05, "MEAN_MOTION_DDOT": 0}, "tle": {"line1": "1 34985U 97051NR  25348.20391490  .00002594  00000+0  78315-3 0  9997", "line2": "2 34985  86.3700  56.2548 0020870 214.6902 200.0327 14.42019267871967"}}, "geometry": {"type": "Point", "coordinates": [-120.2306807760235, -46.19457139500619]}}, {"type": "Feature", "properties": {"norad_id": 35051, "name": "IRIDIUM 33 DEB", "group": "iridium-33-debris", "lat": -21.729603009648, "lon": -170.59428906064414, "alt_km": 742.4617968529146, "timestamp": "2025-12-14T20:40:32.157858+00:00", "meta": {"OBJECT_NAME": "IRIDIUM 33 DEB", "OBJECT_ID": "1997-051NX", "EPOCH": "2025-12-11T08:47:57.045408", "MEAN_MOTION": 14.47588957, "ECCENTRICITY": 0.00106566, "INCLINATION": 86.3243, "RA_OF_ASC_NODE": 9.4603, "ARG_OF_PERICENTER": 94.8899, "MEAN_ANOMALY": 265.3522, "EPHEMERIS_TYPE": 0, "CLASSIFICATION_TYPE": "U", "NORAD_CAT_ID": 35051, "ELEMENT_SET_NO": 999, "REV_AT_EPOCH": 86976, "BSTAR": 0.001042299, "MEAN_MOTION_DOT": 3.858e-05, "MEAN_MOTION_DDOT": 0}, "tle": {"line1": "1 35051U 97051NX  25345.36663247  .00003858  00000+0  10423-2 0  9997", "line2": "2 35051  86.3243   9.4603 0010656  94.8899 265.3522 14.47588957869768"}}, "geometry": {"type": "Point", "coordinates": [-170.59428906064414, -21.729603009648]}}, {"type": "Feature", "properties": {"norad_id": 35052, "name": "IRIDIUM 33 DEB", "group": "iridium-33-debris", "lat": -78.29837841453241, "lon": 1.5197996408267762, "alt_km": 779.9168491306018, "timestamp": "2025-12-14T20:40:32.157868+00:00", "meta": {"OBJECT_NAME": "IRIDIUM 33 DEB", "OBJECT_ID": "1997-051NY", "EPOCH": "2025-12-13T20:00:00.868896", "MEAN_MOTION": 14.38493698, "ECCENTRICITY": 0.00136505, "INCLINATION": 86.331, "RA_OF_ASC_NODE": 20.0075, "ARG_OF_PERICENTER": 82.0555, "MEAN_ANOMALY": 278.2192, "EPHEMERIS_TYPE": 0, "CLASSIFICATION_TYPE": "U", "NORAD_CAT_ID": 35052, "ELEMENT_SET_NO": 999, "REV_AT_EPOCH": 87291, "BSTAR": 0.00024132483, "MEAN_MOTION_DOT": 7.57e-06, "MEAN_MOTION_DDOT": 0}, "tle": {"line1": "1 35052U 97051NY  25347.83334339  .00000757  00000+0  24132-3 0  9997", "line2": "2 35052  86.3310  20.0075 0013650  82.0555 278.2192 14.38493698872915"}}, "geometry": {"type": "Point", "coordinates": [1.5197996408267762, -78.29837841453241]}}, {"type": "Feature", "properties": {"norad_id": 35080, "name": "IRIDIUM 33 DEB", "group": "iridium-33-debris", "lat": 79.5983320081213, "lon": -149.82938156892965, "alt_km": 589.2861535333604, "timestamp": "2025-12-14T20:40:32.157877+00:00", "meta": {"OBJECT_NAME": "IRIDIUM 33 DEB", "OBJECT_ID": "1997-051PF", "EPOCH": "2025-12-14T04:04:06.646368", "MEAN_MOTION": 14.86306117, "ECCENTRICITY": 0.00599054, "INCLINATION": 86.2063, "RA_OF_ASC_NODE": 51.6925, "ARG_OF_PERICENTER": 174.8299, "MEAN_ANOMALY": 185.3558, "EPHEMERIS_TYPE": 0, "CLASSIFICATION_TYPE": "U", "NORAD_CAT_ID": 35080, "ELEMENT_SET_NO": 999, "REV_AT_EPOCH": 69709, "BSTAR": 0.0068845127, "MEAN_MOTION_DOT": 0.00063095, "MEAN_MOTION_DDOT": 0}, "tle": {"line1": "1 35080U 97051PF  25348.16952137  .00063095  00000+0  68845-2 0  9999", "line2": "2 35080  86.2063  51.6925 0059905 174.8299 185.3558 14.86306117697092"}}, "geometry": {"type": "Point", "coordinates": [-149.82938156892965, 79.5983320081213]}}, {"type": "Feature", "properties": {"norad_id": 35297, "name": "IRIDIUM 33 DEB", "group": "iridium-33-debris", "lat": -59.08232380172074, "lon": -112.08877797895163, "alt_km": 752.1467678393101, "timestamp": "2025-12-14T20:40:32.157888+00:00", "meta": {"OBJECT_NAME": "IRIDIUM 33 DEB", "OBJECT_ID": "1997-051PM", "EPOCH": "2025-12-12T22:42:20.538720", "MEAN_MOTION": 14.45159336, "ECCENTRICITY": 0.00177378, "INCLINATION": 86.3854, "RA_OF_ASC_NODE": 62.6701, "ARG_OF_PERICENTER": 139.4968, "MEAN_ANOMALY": 220.7558, "EPHEMERIS_TYPE": 0, "CLASSIFICATION_TYPE": "U", "NORAD_CAT_ID": 35297, "ELEMENT_SET_NO": 999, "REV_AT_EPOCH": 70429, "BSTAR": 0.0010165954, "MEAN_MOTION_DOT": 3.583e-05, "MEAN_MOTION_DDOT": 0}, "tle": {"line1": "1 35297U 97051PM  25346.94607105  .00003583  00000+0  10166-2 0  9994", "line2": "2 35297  86.3854  62.6701 0017737 139.4968 220.7558 14.45159336704291"}}, "geometry": {"type": "Point", "coordinates": [-112.08877797895163, -59.08232380172074]}}, {"type": "Feature", "properties": {"norad_id": 35299, "name": "IRIDIUM 33 DEB", "group": "iridium-33-debris", "lat": 40.262276191732845, "lon": -150.88855079482104, "alt_km": 722.1624858311234, "timestamp": "2025-12-14T20:40:32.157898+00:00", "meta": {"OBJECT_NAME": "IRIDIUM 33 DEB", "OBJECT_ID": "1997-051PP", "EPOCH": "2025-12-13T21:30:05.373792", "MEAN_MOTION": 14.40869269, "ECCENTRICITY": 0.00589763, "INCLINATION": 86.2887, "RA_OF_ASC_NODE": 32.6829, "ARG_OF_PERICENTER": 98.7178, "MEAN_ANOMALY": 74.9066, "EPHEMERIS_TYPE": 0, "CLASSIFICATION_TYPE": "U", "NORAD_CAT_ID": 35299, "ELEMENT_SET_NO": 999, "REV_AT_EPOCH": 86347, "BSTAR": 0.00094211768, "MEAN_MOTION_DOT": 3.102e-05, "MEAN_MOTION_DDOT": 0}, "tle": {"line1": "1 35299U 97051PP  25347.89589553  .00003102  00000+0  94212-3 0  9999", "line2": "2 35299  86.2887  32.6829 0058976  98.7178  74.9066 14.40869269863473"}}, "geometry": {"type": "Point", "coordinates": [-150.88855079482104, 40.262276191732845]}}]}